#aV2014  3 13  0  0  0.00000000     288 DD+AD WGS84 FIT  NGA
## 1783 345600.00000000   300.00000000 56729 0.0000000000000
+   31     1  2  3  4  5  7  8  9 10 11 12 13 14 15 16 17 18
+         19 20 21 22 23 24 25 26 27 28 29 30 31 32  0  0  0
+          0  0  0  0  0  0  0  0  0  0  0  0  0  0  0  0  0
+          0  0  0  0  0  0  0  0  0  0  0  0  0  0  0  0  0
+          0  0  0  0  0  0  0  0  0  0  0  0  0  0  0  0  0
++         2  2  2  2  2  2  2  2  2  2  2  2  2  2  2  2  2
++         2  2  2  2  2  2  2  2  2  2  2  2  2  2  0  0  0
++         0  0  0  0  0  0  0  0  0  0  0  0  0  0  0  0  0
++         0  0  0  0  0  0  0  0  0  0  0  0  0  0  0  0  0
++         0  0  0  0  0  0  0  0  0  0  0  0  0  0  0  0  0
%c cc cc ccc ccc cccc cccc cccc cccc ccccc ccccc ccccc ccccc
%c cc cc ccc ccc cccc cccc cccc cccc ccccc ccccc ccccc ccccc
%f  0.0000000  0.000000000  0.00000000000  0.000000000000000
%f  0.0000000  0.000000000  0.00000000000  0.000000000000000
%i    0    0    0    0      0      0      0      0         0
%i    0    0    0    0      0      0      0      0         0
/*      NGA, ST. LOUIS,MO.                                  
/*   EPHEMERIS COMPUTED FROM  1 DAYS OF DATA                
/*   EPOCHA SMOOTHER                                       
/* CCCCCCCCCCCCCCCCCCCCCCCCCCCCCCCCCCCCCCCCCCCCCCCCCCCCCCCCC
*  2014  3 13  9 30  0.00000000
P  1  19994.683398  13493.437557 -11290.785308      3.794332                    
V  1 -14357.494848  -1446.204577 -27102.534104      0.018731                    
P  2   1614.978474 -15819.004264  21571.408323    483.639801                    
V  2  26088.929366   6162.872763   2098.724552      0.021946                    
P  3  -2496.102946  22089.822895 -14957.664457    337.566695                    
V  3 -12752.511461  13212.592908  22624.959483      0.051567                    
P  4  18171.931788  -8420.335352  17253.843523      6.070984                    
V  4  21302.227406   7484.365546 -18217.947675      0.002322                    
P  5  -2087.320178 -25512.177601   6717.100360   -384.553299                    
V  5   5416.513435   7457.210276  29991.001537      0.018618                    
P  7  25991.741618   5778.187468  -2380.518235    323.487550                    
V  7   2371.815118   2877.155212  31646.806819      0.041896                    
P  8  23406.895135    268.218261 -12963.249407     12.281539                    
V  8  14913.734276   6943.172601  26177.807915      0.001891                    
P  9  22412.291838  -3974.383118 -14356.764738    312.040225                    
V  9  16299.201924   5716.081053  24626.178416      0.029274                    
P 10  11306.660659 -13210.031797  19626.170780   -117.902191                    
V 10   8019.223437  24616.417096  12169.163888     -0.014624                    
P 11  13967.725629  14018.635605 -18287.438542   -471.687733                    
V 11 -22322.806160   3487.324053 -14549.807790     -0.032250                    
P 12 -11347.574970 -22372.872457   9007.188035    191.870550                    
V 12   -991.118981 -11495.937048 -29403.058538      0.023896                    
P 13  18996.392469    548.737390  18480.583545     20.700327                    
V 13 -17561.373002  15888.349233  17303.564940     -0.038829                    
P 14 -21774.135800  13925.482664  -5558.500300    190.904914                    
V 14   3848.016537  -6778.039936 -31011.320079     -0.032647                    
P 15  -4495.941312 -16833.654956 -20024.403542   -167.949818                    
V 15  18287.822725 -17787.788796  11165.081977     -0.021054                    
P 16    800.095576  25428.017806   6898.727213   -227.946798                    
V 16  -3981.793223  -8222.334210  30950.336177      0.016077                    
P 17  20935.917201 -15513.637918  -4194.483480    -75.932229                    
V 17  -2264.394436   5902.894014 -31460.963365     -0.032431                    
P 18 -16759.290056  -5134.811470 -19603.481082    306.981628                    
V 18  -5763.312510 -25280.899693  10965.972309      0.021442                    
P 19   1512.725646  17078.874966 -20289.687256   -444.431773                    
V 19 -20382.999013  15526.092543  12057.709765     -0.023657                    
P 20  14316.160057  20279.892739   9352.769503    169.598280                    
V 20    644.616282  12648.173341 -27773.741333      0.035142                    
P 21 -26190.827996  -4042.125500  -3475.905765   -349.077684                    
V 21  -4139.533411  -4484.444490  30405.698813     -0.022384                    
P 22 -13534.322339   9389.621825 -20611.603949    219.244765                    
V 22  -8108.385251 -25567.002839  -6419.319659      0.027194                    
P 23  11204.461859  10643.153797  21699.966524     -3.459012                    
V 23 -19529.600089  19155.628607    287.641875     -0.032021                    
P 24 -15667.763989 -15067.256061 -15339.987222    -24.848325                    
V 24  19327.414440   2784.249594 -22406.232539     -0.006305                    
P 25 -15816.986534 -11573.284414  17925.150012     18.311663                    
V 25  -4858.456671 -22312.442164 -18502.298642      0.014655                    
P 26   8313.270647 -20386.113638 -15287.634705    140.108140                    
V 26  15206.526413 -10409.265976  23458.333632     -0.110018                    
P 27  -9606.988975  21656.900489 -11960.965778    -20.315852                    
V 27 -12332.874681   9191.909638  26593.850485     -0.003093                    
P 28  13585.411432  -5049.915757 -21646.537962    339.213039                    
V 28   6150.692123  28236.501708  -2784.813161      0.027975                    
P 29 -17615.007727  -2331.098753  19771.966008    517.707862                    
V 29  17706.955067 -17684.445006  13765.606319      0.028411                    
P 30  24723.090173   1211.334535  -9969.826661      3.825442                    
V 30  11048.457869   6400.115447  28165.325270      0.010229                    
P 31 -14386.097796   9952.382469  20238.352344    333.789712                    
V 31 -23982.173851  -7786.407593 -13015.883430      0.002145                    
P 32   4759.085294  26432.555279   -164.663891   -470.076037                    
V 32  -2760.788639    221.877075 -31116.626823      0.071067                    
EOF
